TIANQI-37               
1 67476U 26010A   26023.44824387  .00000390  00000+0  27230-3 0  9990
2 67476  44.9834   8.8069 0010619 343.1736  16.8750 14.14270145  1084
TIANQI-38               
1 67477U 26010B   26023.51806736  .00000378  00000+0  26533-3 0  9998
2 67477  44.9798   8.4782 0011119 346.1352  13.9179 14.14420710  1094
TIANQI-39               
1 67478U 26010C   26023.44689105  .00000408  00000+0  28013-3 0  9999
2 67478  44.9844   8.7992 0011045 349.8195  10.2418 14.14522743  1080
TIANQI-40               
1 67479U 26010D   26023.44682012  .00000406  00000+0  27901-3 0  9993
2 67479  44.9850   8.7989 0011798 346.0813  13.9699 14.14535104  1081
TRANSPORTER-15DT        
1 67483U 25276DT  26023.62919692  .00002640  00000+0  23040-3 0  9990
2 67483  97.5437  99.3063 0010026 254.6544 105.3570 14.97630837   979
HULIANWANG DIGUI-146    
1 67522U 26013A   26020.51319441 -.00000149  00000+0  00000+0 0  9995
2 67522  50.0132 180.3657 0011444 238.6074 121.3708 13.97939256   173
HULIANWANG DIGUI-147    
1 67523U 26013B   26021.72840118 -.00000136  00000+0  93300-5 0  9997
2 67523  49.9994 175.4584 0015328 243.7764 116.1562 13.97588994   347
HULIANWANG DIGUI-148    
1 67524U 26013C   26021.44230141 -.00000137  00000+0  86600-5 0  9992
2 67524  50.0070 176.6144 0010785 240.3737 119.6091 13.98087765   308
HULIANWANG DIGUI-149    
1 67525U 26013D   26021.15633713 -.00000091  00000+0  40401-4 0  9990
2 67525  50.0063 177.7692 0010537 247.0477 112.9313 13.98123959   265
HULIANWANG DIGUI-150    
1 67526U 26013E   26021.65646839 -.00000136  00000+0  91647-5 0  9998
2 67526  50.0089 175.7502 0010020 246.8581 113.1265 13.98253209   353
HULIANWANG DIGUI-151    
1 67527U 26013F   26021.15608316 -.00000614  00000+0 -32354-3 0  9992
2 67527  50.0035 177.7600 0009841 238.6748 121.3191 13.98327198   267
HULIANWANG DIGUI-152    
1 67528U 26013G   26021.72796603 -.00000136  00000+0  91180-5 0  9995
2 67528  49.9990 175.4472 0009907 256.3608 103.6191 13.97887108   345
